start=new Date('2023-01-23T00:00:00.000Z').valueOf();
sats=[{"MEAN_MOTION_DOT":"0.00000240","SITE":"AFETR","APOAPSIS":"548.249","EPHEMERIS_TYPE":"0","OBJECT_TYPE":"PAYLOAD","TIME_SYSTEM":"UTC","DECAY_DATE":null,"TLE_LINE1":"1 48455U 21040AD  23022.67058143  .00000240  00000-0  34986-4 0  9996","OBJECT_NAME":"STARLINK-2497","RCS_SIZE":"LARGE","COUNTRY_CODE":"US","PERIOD":"95.593","RA_OF_ASC_NODE":"268.3453","PERIAPSIS":"546.220","OBJECT_ID":"2021-040AD","REV_AT_EPOCH":"9510","REF_FRAME":"TEME","LAUNCH_DATE":"2021-05-09","ARG_OF_PERICENTER":"85.6891","BSTAR":"0.00003498600000","NORAD_CAT_ID":"48455","CLASSIFICATION_TYPE":"U","CENTER_NAME":"EARTH","MEAN_MOTION_DDOT":"0.0000000000000","TLE_LINE2":"2 48455  53.0495 268.3453 0001465  85.6891 274.4266 15.06393236 95102","EPOCH":"2023-01-22T16:05:38.235552","SEMIMAJOR_AXIS":"6925.369","MEAN_ELEMENT_THEORY":"SGP4","INCLINATION":"53.0495","FILE":"3758150","ELEMENT_SET_NO":"999","ECCENTRICITY":"0.00014650","GP_ID":"223599332","MEAN_MOTION":"15.06393236","MEAN_ANOMALY":"274.4266"},{"DECAY_DATE":null,"TIME_SYSTEM":"UTC","OBJECT_TYPE":"PAYLOAD","MEAN_MOTION_DOT":"0.00004225","SITE":"AFETR","EPHEMERIS_TYPE":"0","APOAPSIS":"548.012","TLE_LINE1":"1 48456U 21040AE  23022.13610366  .00004225  00000-0  30226-3 0  9998","OBJECT_NAME":"STARLINK-2508","RCS_SIZE":"LARGE","OBJECT_ID":"2021-040AE","REV_AT_EPOCH":"9502","PERIAPSIS":"546.336","RA_OF_ASC_NODE":"270.7480","PERIOD":"95.591","COUNTRY_CODE":"US","CLASSIFICATION_TYPE":"U","NORAD_CAT_ID":"48456","LAUNCH_DATE":"2021-05-09","ARG_OF_PERICENTER":"102.5304","BSTAR":"0.00030226000000","REF_FRAME":"TEME","TLE_LINE2":"2 48456  53.0525 270.7480 0001210 102.5304 257.5820 15.06413041 95026","SEMIMAJOR_AXIS":"6925.309","EPOCH":"2023-01-22T03:15:59.356224","MEAN_ELEMENT_THEORY":"SGP4","INCLINATION":"53.0525","MEAN_MOTION_DDOT":"0.0000000000000","CENTER_NAME":"EARTH","FILE":"3757482","ECCENTRICITY":"0.00012100","GP_ID":"223585120","MEAN_MOTION":"15.06413041","MEAN_ANOMALY":"257.5820","ELEMENT_SET_NO":"999"},{"RCS_SIZE":"LARGE","PERIAPSIS":"546.499","REV_AT_EPOCH":"9485","OBJECT_ID":"2021-040AG","COUNTRY_CODE":"US","RA_OF_ASC_NODE":"276.9691","PERIOD":"95.592","OBJECT_TYPE":"PAYLOAD","TIME_SYSTEM":"UTC","DECAY_DATE":null,"APOAPSIS":"547.903","EPHEMERIS_TYPE":"0","MEAN_MOTION_DOT":"0.00004636","SITE":"AFETR","OBJECT_NAME":"STARLINK-2698","TLE_LINE1":"1 48458U 21040AG  23021.88317904  .00004636  00000-0  32984-3 0  9992","FILE":"3757216","ELEMENT_SET_NO":"999","MEAN_ANOMALY":"267.8080","ECCENTRICITY":"0.00010140","GP_ID":"223579192","MEAN_MOTION":"15.06404127","CLASSIFICATION_TYPE":"U","NORAD_CAT_ID":"48458","REF_FRAME":"TEME","BSTAR":"0.00032984000000","ARG_OF_PERICENTER":"92.3025","LAUNCH_DATE":"2021-05-09","INCLINATION":"53.0535","TLE_LINE2":"2 48458  53.0535 276.9691 0001014  92.3025 267.8080 15.06404127 94856","EPOCH":"2023-01-21T21:11:46.669056","SEMIMAJOR_AXIS":"6925.336","MEAN_ELEMENT_THEORY":"SGP4","CENTER_NAME":"EARTH","MEAN_MOTION_DDOT":"0.0000000000000"},{"MEAN_MOTION_DDOT":"0.0000000000000","CENTER_NAME":"EARTH","TLE_LINE2":"2 48459  53.0541 276.0771 0001330 112.4115 247.7015 15.06415685 94956","EPOCH":"2023-01-22T03:23:21.681888","SEMIMAJOR_AXIS":"6925.300","MEAN_ELEMENT_THEORY":"SGP4","INCLINATION":"53.0541","LAUNCH_DATE":"2021-05-09","ARG_OF_PERICENTER":"112.4115","BSTAR":"0.00065875000000","REF_FRAME":"TEME","CLASSIFICATION_TYPE":"U","NORAD_CAT_ID":"48459","ECCENTRICITY":"0.00013300","GP_ID":"223599685","MEAN_MOTION":"15.06415685","MEAN_ANOMALY":"247.7015","ELEMENT_SET_NO":"999","FILE":"3758150","TLE_LINE1":"1 48459U 21040AH  23022.14122317  .00009548  00000-0  65875-3 0  9997","OBJECT_NAME":"STARLINK-2579","SITE":"AFETR","MEAN_MOTION_DOT":"0.00009548","APOAPSIS":"548.087","EPHEMERIS_TYPE":"0","DECAY_DATE":null,"OBJECT_TYPE":"PAYLOAD","TIME_SYSTEM":"UTC","PERIOD":"95.591","RA_OF_ASC_NODE":"276.0771","COUNTRY_CODE":"US","OBJECT_ID":"2021-040AH","REV_AT_EPOCH":"9495","PERIAPSIS":"546.244","RCS_SIZE":"LARGE"},{"INCLINATION":"53.0504","MEAN_ELEMENT_THEORY":"SGP4","TLE_LINE2":"2 48460  53.0504 276.8372 0000954  83.8252 276.2846 15.06404745 94815","SEMIMAJOR_AXIS":"6925.334","EPOCH":"2023-01-21T21:27:40.921632","CENTER_NAME":"EARTH","MEAN_MOTION_DDOT":"0.0000000000000","NORAD_CAT_ID":"48460","CLASSIFICATION_TYPE":"U","REF_FRAME":"TEME","BSTAR":"0.00032385000000","ARG_OF_PERICENTER":"83.8252","LAUNCH_DATE":"2021-05-09","ELEMENT_SET_NO":"999","MEAN_ANOMALY":"276.2846","ECCENTRICITY":"0.00009540","GP_ID":"223585121","MEAN_MOTION":"15.06404745","FILE":"3757482","OBJECT_NAME":"STARLINK-2582","TLE_LINE1":"1 48460U 21040AJ  23021.89422363  .00004546  00000-0  32385-3 0  9997","TIME_SYSTEM":"UTC","OBJECT_TYPE":"PAYLOAD","DECAY_DATE":null,"EPHEMERIS_TYPE":"0","APOAPSIS":"547.860","MEAN_MOTION_DOT":"0.00004546","SITE":"AFETR","PERIAPSIS":"546.538","REV_AT_EPOCH":"9481","OBJECT_ID":"2021-040AJ","COUNTRY_CODE":"US","RA_OF_ASC_NODE":"276.8372","PERIOD":"95.592","RCS_SIZE":"LARGE"},{"CENTER_NAME":"EARTH","MEAN_MOTION_DDOT":"0.0000000000000","INCLINATION":"53.0528","TLE_LINE2":"2 48461  53.0528 278.8584 0001737  81.7590 278.3596 15.06400849 95526","SEMIMAJOR_AXIS":"6925.346","EPOCH":"2023-01-21T10:40:08.486688","MEAN_ELEMENT_THEORY":"SGP4","REF_FRAME":"TEME","ARG_OF_PERICENTER":"81.7590","BSTAR":"-0.00002011000000","LAUNCH_DATE":"2021-05-09","NORAD_CAT_ID":"48461","CLASSIFICATION_TYPE":"U","ELEMENT_SET_NO":"999","MEAN_ANOMALY":"278.3596","GP_ID":"223573139","MEAN_MOTION":"15.06400849","ECCENTRICITY":"0.00017370","FILE":"3756993","OBJECT_NAME":"STARLINK-2693","TLE_LINE1":"1 48461U 21040AK  23021.44454267 -.00000581  00000-0 -20110-4 0  9998","APOAPSIS":"548.414","EPHEMERIS_TYPE":"0","MEAN_MOTION_DOT":"-0.00000581","SITE":"AFETR","OBJECT_TYPE":"PAYLOAD","TIME_SYSTEM":"UTC","DECAY_DATE":null,"COUNTRY_CODE":"US","RA_OF_ASC_NODE":"278.8584","PERIOD":"95.592","PERIAPSIS":"546.008","REV_AT_EPOCH":"9552","OBJECT_ID":"2021-040AK","RCS_SIZE":"LARGE"},{"INCLINATION":"53.0548","TLE_LINE2":"2 48462  53.0548 278.2523 0001393 101.4753 258.6393 15.06391752 94971","SEMIMAJOR_AXIS":"6925.374","EPOCH":"2023-01-22T18:06:26.329824","MEAN_ELEMENT_THEORY":"SGP4","CENTER_NAME":"EARTH","MEAN_MOTION_DDOT":"0.0000000000000","NORAD_CAT_ID":"48462","CLASSIFICATION_TYPE":"U","REF_FRAME":"TEME","ARG_OF_PERICENTER":"101.4753","BSTAR":"-0.00005337200000","LAUNCH_DATE":"2021-05-09","ELEMENT_SET_NO":"999","MEAN_ANOMALY":"258.6393","ECCENTRICITY":"0.00013930","GP_ID":"223599341","MEAN_MOTION":"15.06391752","FILE":"3758168","OBJECT_NAME":"STARLINK-2683","TLE_LINE1":"1 48462U 21040AL  23022.75447141 -.00001076  00000-0 -53372-4 0  9993","TIME_SYSTEM":"UTC","OBJECT_TYPE":"PAYLOAD","DECAY_DATE":null,"APOAPSIS":"548.204","EPHEMERIS_TYPE":"0","SITE":"AFETR","MEAN_MOTION_DOT":"-0.00001076","PERIAPSIS":"546.274","REV_AT_EPOCH":"9497","OBJECT_ID":"2021-040AL","COUNTRY_CODE":"US","RA_OF_ASC_NODE":"278.2523","PERIOD":"95.593","RCS_SIZE":"LARGE"},{"MEAN_MOTION_DDOT":"0.0000000000000","CENTER_NAME":"EARTH","INCLINATION":"53.0514","TLE_LINE2":"2 48463  53.0514 279.4317 0000980 101.3218 258.7881 15.06402437 95602","SEMIMAJOR_AXIS":"6925.341","EPOCH":"2023-01-22T10:17:56.377536","MEAN_ELEMENT_THEORY":"SGP4","ARG_OF_PERICENTER":"101.3218","BSTAR":"0.00033471000000","LAUNCH_DATE":"2021-05-09","REF_FRAME":"TEME","NORAD_CAT_ID":"48463","CLASSIFICATION_TYPE":"U","MEAN_ANOMALY":"258.7881","ECCENTRICITY":"0.00009800","GP_ID":"223587371","MEAN_MOTION":"15.06402437","ELEMENT_SET_NO":"999","FILE":"3757620","OBJECT_NAME":"STARLINK-2689","TLE_LINE1":"1 48463U 21040AM  23022.42912474  .00004708  00000-0  33471-3 0  9994","EPHEMERIS_TYPE":"0","APOAPSIS":"547.885","SITE":"AFETR","MEAN_MOTION_DOT":"0.00004708","DECAY_DATE":null,"TIME_SYSTEM":"UTC","OBJECT_TYPE":"PAYLOAD","RA_OF_ASC_NODE":"279.4317","PERIOD":"95.592","COUNTRY_CODE":"US","REV_AT_EPOCH":"9560","OBJECT_ID":"2021-040AM","PERIAPSIS":"546.527","RCS_SIZE":"LARGE"},{"MEAN_ANOMALY":"243.2313","ECCENTRICITY":"0.00023870","GP_ID":"223599688","MEAN_MOTION":"15.06396372","ELEMENT_SET_NO":"999","FILE":"3758168","MEAN_MOTION_DDOT":"0.0000000000000","CENTER_NAME":"EARTH","INCLINATION":"53.0534","TLE_LINE2":"2 48464  53.0534 278.0354 0002387 116.8921 243.2313 15.06396372 95650","EPOCH":"2023-01-22T17:45:08.936928","SEMIMAJOR_AXIS":"6925.360","MEAN_ELEMENT_THEORY":"SGP4","BSTAR":"-0.00002200200000","ARG_OF_PERICENTER":"116.8921","LAUNCH_DATE":"2021-05-09","REF_FRAME":"TEME","CLASSIFICATION_TYPE":"U","NORAD_CAT_ID":"48464","RA_OF_ASC_NODE":"278.0354","PERIOD":"95.592","COUNTRY_CODE":"US","REV_AT_EPOCH":"9565","OBJECT_ID":"2021-040AN","PERIAPSIS":"545.572","RCS_SIZE":"MEDIUM","OBJECT_NAME":"STARLINK-2686","TLE_LINE1":"1 48464U 21040AN  23022.73968677 -.00000610  00000-0 -22002-4 0  9994","EPHEMERIS_TYPE":"0","APOAPSIS":"548.878","MEAN_MOTION_DOT":"-0.00000610","SITE":"AFETR","DECAY_DATE":null,"OBJECT_TYPE":"PAYLOAD","TIME_SYSTEM":"UTC"},{"MEAN_MOTION_DDOT":"0.0000000000000","CENTER_NAME":"EARTH","INCLINATION":"53.0537","TLE_LINE2":"2 48465  53.0537 279.4667 0001159 137.3797 222.7282 15.06401886 95600","EPOCH":"2023-01-22T10:03:22.200480","SEMIMAJOR_AXIS":"6925.343","MEAN_ELEMENT_THEORY":"SGP4","BSTAR":"0.00000582640000","ARG_OF_PERICENTER":"137.3797","LAUNCH_DATE":"2021-05-09","REF_FRAME":"TEME","NORAD_CAT_ID":"48465","CLASSIFICATION_TYPE":"U","MEAN_ANOMALY":"222.7282","GP_ID":"223592768","ECCENTRICITY":"0.00011590","MEAN_MOTION":"15.06401886","ELEMENT_SET_NO":"999","FILE":"3757835","OBJECT_NAME":"STARLINK-2681","TLE_LINE1":"1 48465U 21040AP  23022.41900695 -.00000195  00000-0  58264-5 0  9993","EPHEMERIS_TYPE":"0","APOAPSIS":"548.010","SITE":"AFETR","MEAN_MOTION_DOT":"-0.00000195","DECAY_DATE":null,"TIME_SYSTEM":"UTC","OBJECT_TYPE":"PAYLOAD","RA_OF_ASC_NODE":"279.4667","PERIOD":"95.592","COUNTRY_CODE":"US","REV_AT_EPOCH":"9560","OBJECT_ID":"2021-040AP","PERIAPSIS":"546.405","RCS_SIZE":"LARGE"}];
